OBJECT_NAME,OBJECT_ID,EPOCH,MEAN_MOTION,ECCENTRICITY,INCLINATION,RA_OF_ASC_NODE,ARG_OF_PERICENTER,MEAN_ANOMALY,EPHEMERIS_TYPE,CLASSIFICATION_TYPE,NORAD_CAT_ID,ELEMENT_SET_NO,REV_AT_EPOCH,BSTAR,MEAN_MOTION_DOT,MEAN_MOTION_DDOT
VICTUS HAZE PUMA,2026-142A,2026-07-17T06:50:10.926816,15.21130484,.002641,97.4460,95.5636,259.4735,100.3525,0,U,69646,999,424,.10157E-3,.2209E-4,0
HOKUSHIN-1,1998-067YH,2026-07-18T21:37:22.800576,15.51128389,.00061779,51.6319,142.8432,343.5660,16.5129,0,U,69648,999,457,.27614769E-3,.15983E-3,0
STARLINK-37656,2026-143A,2026-07-18T13:48:22.298976,15.49206159,.000055,97.2851,243.4906,18.4108,341.7163,0,U,69649,999,540,.41965E-3,.22813E-3,0
STARLINK-37646,2026-143B,2026-07-17T09:41:10.843872,15.48770998,.0003494,97.2850,242.4838,139.4005,220.7507,0,U,69650,999,523,-.30305E-2,-.159329E-2,0
STARLINK-37749,2026-143C,2026-07-18T13:45:07.981056,15.49197876,.0000939,97.2847,243.6477,109.3625,250.7727,0,U,69651,999,541,.28661E-3,.15533E-3,0
STARLINK-37819,2026-143D,2026-07-17T02:22:30.042048,15.49219289,.00016833,97.2815,242.1313,91.4316,268.7128,0,U,69652,999,518,.68551182E-3,.3741E-3,0
STARLINK-37729,2026-143E,2026-07-18T22:00:01.999584,15.69495117,.00018631,97.2853,244.5290,99.1174,181.9055,0,U,69653,999,555,-.22754044E-1,-.2307046E-1,0
STARLINK-37838,2026-143F,2026-07-18T22:37:30.235584,15.48366818,.00052665,97.2821,244.0626,197.9554,162.1512,0,U,69654,999,547,-.94337259E-2,-.470456E-2,0
STARLINK-37884,2026-143G,2026-07-18T22:00:01.999584,15.38211170,.00028077,97.2854,243.9365,91.7369,231.9289,0,U,69655,999,555,-.5381337E-1,-.1821959E-1,0
STARLINK-37876,2026-143H,2026-07-18T22:00:01.999584,15.36943314,.00010879,97.2840,244.0115,88.5644,61.5900,0,U,69656,999,546,.10191811E-2,.36873E-3,0
STARLINK-37784,2026-143J,2026-07-18T01:38:58.176096,15.49225127,.00008728,97.2837,243.1099,101.0730,259.0619,0,U,69657,999,526,.64464637E-3,.35171E-3,0
STARLINK-37851,2026-143K,2026-07-17T01:43:35.226336,15.49205906,.00006228,97.2843,242.1702,94.0044,266.1279,0,U,69658,999,511,.37230415E-3,.20222E-3,0
STARLINK-37229,2026-143L,2026-07-18T22:00:01.999584,15.38016256,.00027275,97.2865,243.9790,57.9242,347.8186,0,U,69659,999,550,-.13596456E+0,-.4437312E-1,0
STARLINK-37556,2026-143M,2026-07-18T22:00:01.999584,15.37587490,.00013137,97.2842,243.9453,132.0518,225.3957,0,U,69660,999,550,-.48776927E-1,-.1610452E-1,0
STARLINK-37867,2026-143N,2026-07-18T22:00:01.999584,15.33431750,.000179,97.2846,243.9816,58.4071,21.5652,0,U,69661,999,546,.10751905E-2,.34782E-3,0
STARLINK-37852,2026-143P,2026-07-18T20:21:09.951840,15.49060514,.00041345,97.2837,243.8870,345.0983,15.0145,0,U,69662,999,538,.43789285E-3,.23696E-3,0
STARLINK-37554,2026-143Q,2026-07-18T22:00:01.999584,15.36952453,.0001622,97.2848,243.9689,97.4190,316.2194,0,U,69663,999,550,.86125243E-3,.31133E-3,0
STARLINK-37830,2026-143R,2026-07-18T22:00:01.999584,15.36954922,.00018432,97.2849,243.9557,73.5076,296.1905,0,U,69664,999,545,.47540266E-3,.1712E-3,0
STARLINK-37837,2026-143S,2026-07-18T01:46:04.893600,15.36980990,.00007074,97.2839,243.1034,83.4688,276.6638,0,U,69665,999,526,.28380515E-3,.10188E-3,0
STARLINK-37943,2026-143T,2026-07-18T21:43:38.535168,15.47484725,.00023184,97.2839,243.9616,102.8874,257.2635,0,U,69666,999,539,-.17013912E-1,-.800559E-2,0
STARLINK-37941,2026-143U,2026-07-18T22:00:01.999584,15.41574841,.00021258,97.2847,244.0035,80.5856,31.1614,0,U,69667,999,546,-.74116461E-1,-.2721424E-1,0
STARLINK-37930,2026-143V,2026-07-17T01:59:38.823936,15.49238300,.00011666,97.2839,242.1534,117.7877,242.3492,0,U,69668,999,511,.53609935E-3,.29225E-3,0
STARLINK-37945,2026-143W,2026-07-17T01:41:03.861312,15.49200166,.00008062,97.2808,242.1687,71.0791,289.0547,0,U,69669,999,511,.38917037E-3,.2114E-3,0
STARLINK-37948,2026-143X,2026-07-18T16:02:21.087168,15.49209185,.00002068,97.2858,243.6736,336.1292,23.9949,0,U,69670,999,535,.46702926E-3,.25409E-3,0
STARLINK-37949,2026-143Y,2026-07-18T03:03:06.834816,15.49203170,.00004745,97.2832,243.1814,279.8491,80.2706,0,U,69671,999,527,.61059453E-3,.33274E-3,0
STARLINK-37946,2026-143Z,2026-07-18T16:40:09.909696,15.49211451,.00000943,97.2853,243.7889,264.4292,95.6948,0,U,69672,999,536,.45444053E-3,.24722E-3,0
TJS-26A,2026-144A,2026-07-18T20:56:22.620192,1.00271768,.00040985,6.9434,323.2333,349.1492,45.9312,0,U,69674,999,26,0,-.355E-5,0
CZ-7A R/B,2026-144B,2026-07-17T17:43:15.653568,2.65384182,.70522592,19.4386,313.7982,198.9731,108.4435,0,U,69675,999,63,.14334455E-2,.13451E-1,.45800595E-4
STARLINK-38005,2026-145A,2026-07-18T13:02:53.018880,15.75283787,.00012073,97.2835,46.5416,114.8686,245.2705,0,U,69677,999,370,.14010137E-2,.215058E-2,0
STARLINK-38009,2026-145B,2026-07-18T13:00:21.006720,15.75266910,.00013427,97.2837,46.5448,112.3279,247.8129,0,U,69678,999,370,.13826686E-2,.212009E-2,0
